{"name":"Kei","stars":2,"street":"5 rue du Coq-Héron","postalCode":"75001","city":"Paris 01"}
{"name":"L'Essentiel","stars":1,"street":"29 Rue Mirabeau","postalCode":"14800","city":"DEAUVILLE"}
{"name":"Les Rosiers","stars":1,"street":"32 av. Beau Soleil","postalCode":"64200","city":"Biarritz"}
{"name":"Dyades au Domaine des Étangs","stars":1,"street":"Les Etangs","postalCode":"16310","city":"MASSIGNAC"}
{"name":"Auberge au Boeuf","stars":1,"street":"Rue de l'Eglise","postalCode":"67770","city":"Sessenheim"}
{"name":"Auguste","stars":1,"street":"54 r. Bourgogne","postalCode":"75007","city":"Paris 07"}
{"name":"Le Bénaton","stars":1,"street":"25 Rue du Faubourg-Bretonnière","postalCode":"21200","city":"BEAUNE"}
{"name":"Le Pressoir d'Argent - Gordon Ramsay","stars":2,"street":"2,5 Place de la Comédie","postalCode":"33000","city":"Bordeaux"}
{"name":"La Marelle","stars":1,"street":"1593 av. de Lyon","postalCode":"01960","city":"Péronnas"}
{"name":"La Maison dans le Parc","stars":1,"street":"3 r. Ste-Catherine","postalCode":"54000","city":"Nancy"}
{"name":"Le Jardin de Benjamin","stars":1,"street":"Route de Salernes","postalCode":"83510","city":"Lorgues"}
{"name":"L'Olivier","stars":1,"street":"25 Route des Carles","postalCode":"83990","city":"Saint-Tropez"}
{"name":"Aux Anges","stars":1,"street":"6 Place Georges Clemenceau","postalCode":"42300","city":"Roanne"}
{"name":"Xavier Mathieu","stars":1,"street":"Route de Murs","postalCode":"84220","city":"Joucas"}
{"name":"La Ville Blanche","stars":1,"street":"La Ville Blanche","postalCode":"22300","city":"Rospez"}
{"name":"Le Cerisier","stars":1,"street":"3 rue de la Gare","postalCode":"62840","city":"LAVENTIE"}
{"name":"Les Terrasses d'Uriage","stars":2,"street":"pl. Déesse-Hygie","postalCode":"38410","city":"Uriage-les-Bains"}
{"name":"Le Kléber","stars":1,"street":"6 r. A. -Dumont","postalCode":"26400","city":"Crest"}
{"name":"Château de Courban","stars":1,"street":"7 rue du Lavoir","postalCode":"21520","city":"Courban"}
{"name":"Le Cap","stars":1,"street":"71 Boulevard du Général-de-Gaulle","postalCode":"06230","city":"SAINT-JEAN-CAP-FERRAT"}
{"name":"La Voile","stars":1,"street":"chemin de la Quessine","postalCode":"83350","city":"Ramatuelle"}
{"name":"Ithurria","stars":1,"street":"pl. du Fronton","postalCode":"64250","city":"Ainhoa"}
{"name":"L'Auberge Basque","stars":1,"street":"quartier Helbarron","postalCode":"64310","city":"Saint-Pée-sur-Nivelle"}
{"name":"Chez Michèle","stars":1,"street":"57 rue Principale","postalCode":"57810","city":"Languimberg"}
{"name":"Le Petit Nice","stars":3,"street":"Anse de Maldormé - Corniche J. F. Kennedy","postalCode":"13007","city":"Marseille 07"}
{"name":"Auberge de la Mine","stars":1,"street":"le Gué-Plat","postalCode":"61450","city":"La Ferrière-aux-Étangs"}
{"name":"Le Pergolèse","stars":1,"street":"40 Rue Pergolèse","postalCode":"75116","city":"Paris"}
{"name":"Château de Mercuès","stars":1,"street":"Route du Château","postalCode":"46090","city":"Mercuès"}
{"name":"La Chaumière","stars":1,"street":"346 av. du Mar. -Juin","postalCode":"39100","city":"Dole"}
{"name":"La Fourchette des Ducs","stars":2,"street":"6 r. de la Gare","postalCode":"67210","city":"Obernai"}
{"name":"En Marge","stars":1,"street":"1204 route de la Croix-Falgarde","postalCode":"31320","city":"AUREVILLE"}
{"name":"Pierre Gagnaire","stars":3,"street":"6 Rue Balzac","postalCode":"75008","city":"Paris 08"}
{"name":"Le Moulin de l'Abbaye","stars":1,"street":"1 avenue Pierre de Bourdeilles","postalCode":"24310","city":"BRANTOME"}
{"name":"Loiseau des Vignes","stars":1,"street":"31 Rue Jean Francois Maufoux","postalCode":"21200","city":"Beaune"}
{"name":"Aigue Marine","stars":1,"street":"5 r. M. -Berthelot","postalCode":"22220","city":"Tréguier"}
{"name":"L'Atelier Yssoirien","stars":1,"street":"39 Boulevard Triozon-Bayle","postalCode":"63500","city":"Issoire"}
{"name":"Les Explorateurs","stars":1,"street":"place du Slalom","postalCode":"73440","city":"VAL THORENS"}
{"name":"Château d'Adoménil","stars":1,"street":"","postalCode":"54300","city":"Lunéville"}
{"name":"Les Clefs d'Argent","stars":1,"street":"333 Avenue des Martyrs de la Résistance","postalCode":"40000","city":"Mont-de-Marsan"}
{"name":"Le Pavillon","stars":1,"street":"av. du Verger","postalCode":"62520","city":"Le Touquet-Paris-Plage"}
{"name":"Flocons de Sel","stars":3,"street":"1775 rte du Leutaz","postalCode":"74120","city":"Megève"}
{"name":"Mon Plaisir","stars":1,"street":"22 lieu-dit Journal","postalCode":"25190","city":"Chamesol"}
{"name":"La Table de l'Espadon","stars":2,"street":"15 Place Vendôme","postalCode":"75001","city":"Paris"}
{"name":"Maison Christian Étienne","stars":1,"street":"10 Rue de Mons","postalCode":"84000","city":"Avignon"}
{"name":"La Table d'Uzès","stars":1,"street":"18 rue du Docteur Blanchard","postalCode":"30700","city":"Uzès"}
{"name":"Le Saison","stars":1,"street":"1 imp. du Vieux-Bourg","postalCode":"35760","city":"Saint-Grégoire"}
{"name":"Le Petit Hôtel du Grand Large","stars":1,"street":"11 quai St-Ivy","postalCode":"56510","city":"Portivy"}
{"name":"Le Moulin de la Gorce","stars":1,"street":"D17","postalCode":"87800","city":"La Roche-l'Abeille"}
{"name":"Passage 53","stars":2,"street":"53 passage des Panoramas","postalCode":"75002","city":"Paris"}
{"name":"Logis de la Cadène","stars":1,"street":"Place du Marche au Bois","postalCode":"33330","city":"Saint Emilion"}
{"name":"Auberge St-Laurent","stars":1,"street":"1 rue Fontaine","postalCode":"68510","city":"Sierentz"}
{"name":"Hervé Busset","stars":1,"street":"D901","postalCode":"12320","city":"Conques"}
{"name":"L'Amphitryon","stars":1,"street":"127 r. du Col. -Müller","postalCode":"56100","city":"Lorient"}
{"name":"Le Vivier","stars":1,"street":"800 cours F. Peyre (rte de Carpentras)","postalCode":"84800","city":"L'Isle-sur-la-Sorgue"}
{"name":"La Gourmandière - La Table d'Olivier","stars":1,"street":"D126","postalCode":"56000","city":"Vannes"}
{"name":"L'Auberge de la Pomme","stars":1,"street":"44 rue de l' eure","postalCode":"27340","city":"Les Damps"}
{"name":"Fontevraud Le Restaurant","stars":1,"street":"38 rue St-Jean-de-l'Habit","postalCode":"49590","city":"FONTEVRAUD-L'ABBAYE"}
{"name":"Le Mascaret","stars":1,"street":"1 r. de Bas","postalCode":"50560","city":"Blainville-sur-Mer"}
{"name":"Les Terrasses de Lyon","stars":1,"street":"25, montée Saint BArthelémy","postalCode":"69005","city":"Lyon 05"}
{"name":"La Table du Connétable","stars":1,"street":"4 Rue du Connétable","postalCode":"60500","city":"Chantilly"}
{"name":"La Passagère","stars":1,"street":"33 boulevard E. -Baudoin","postalCode":"06160","city":"Juan-les-Pins"}
{"name":"Alléno Paris au Pavillon Ledoyen","stars":3,"street":"8 avenue Dutuit","postalCode":"75008","city":"Paris"}
{"name":"Sylvestre","stars":2,"street":"79 rue St-Dominique","postalCode":"75007","city":"Paris"}
{"name":"Flaveur","stars":2,"street":"25 Rue Gubernatis","postalCode":"06000","city":"Nice"}
{"name":"Auberge de Clochemerle","stars":1,"street":"Rue Gabriel-Chevallier","postalCode":"69460","city":"VAUX-EN-BEAUJOLAIS"}
{"name":"Auberge Frankenbourg","stars":1,"street":"13 r. Gén. de Gaulle","postalCode":"67730","city":"La Vancelle"}
{"name":"L'Arôme","stars":1,"street":"3 rue St-Philippe-du-Roule","postalCode":"75008","city":"Paris 08"}
{"name":"La Maison d'à Côté","stars":1,"street":"17 rue de Chambord","postalCode":"41350","city":"Montlivault"}
{"name":"Alain Ducasse au Plaza Athénée","stars":3,"street":"25 avenue Montaigne","postalCode":"75008","city":"Paris"}
{"name":"David Toutain","stars":1,"street":"29 r. Surcouf","postalCode":"75007","city":"Paris"}
{"name":"Chapelle Saint-Martin","stars":1,"street":"33, Saint Martin du Fault","postalCode":"87510","city":"Nieul"}
{"name":"Faventia","stars":1,"street":"3100 route de Bagnols-en-Forêt","postalCode":"83440","city":"Tourrettes"}
{"name":"Montée","stars":1,"street":"9 r. Léopold-Robert","postalCode":"75014","city":"Paris"}
{"name":"Le Passe Temps","stars":1,"street":"52 Rue Tronchet","postalCode":"69006","city":"Lyon"}
{"name":"Serge Vieira","stars":2,"street":"Château du Couffour","postalCode":"15110","city":"Chaudes-Aigues"}
{"name":"Le Raisin","stars":1,"street":"2 pl. M. -Poisat","postalCode":"01190","city":"Pont-de-Vaux"}
{"name":"Cobéa","stars":1,"street":"11 r. Raymond Losserand","postalCode":"75014","city":"Paris 14"}
{"name":"Qui plume la Lune","stars":1,"street":"50 r. Amelot","postalCode":"75011","city":"Paris 11"}
{"name":"Le Figuier de St-Esprit","stars":1,"street":"7, Promenade Amiral de Grasse","postalCode":"06600","city":"Antibes"}
{"name":"La Table de la Bergerie","stars":1,"street":"La Bergerie","postalCode":"49380","city":"Champ-sur-Layon"}
{"name":"Le Manoir du Lys","stars":1,"street":"D235","postalCode":"61140","city":"Bagnoles-de-l'Orne"}
{"name":"La Bonne Auberge","stars":1,"street":"15 r. Nationale","postalCode":"57350","city":"Stiring-Wendel"}
{"name":"Hostellerie du Rosenmeer","stars":1,"street":"45 avenue de la Gare","postalCode":"67560","city":"ROSHEIM"}
{"name":"Quai des Saveurs","stars":1,"street":"69 rue de la Gare","postalCode":"57300","city":"Hagondange"}
{"name":"L'Orangerie du Château","stars":1,"street":"1 Avenue du Docteur Jean Laigret","postalCode":"41000","city":"Blois"}
{"name":"Domaine d'Auriac","stars":1,"street":"Route de Saint-Hilaire","postalCode":"11000","city":"Carcassonne"}
{"name":"Le Domaine du Colombier","stars":1,"street":"270 Chemin de Malombre","postalCode":"26780","city":"Malataverne"}
{"name":"Auberge à la Bonne Idée","stars":1,"street":"3 rue des Meuniers","postalCode":"60350","city":"SAINT-JEAN-AUX-BOIS"}
{"name":"Hexagone","stars":1,"street":"85 Avenue Kléber","postalCode":"75016","city":"Paris"}
{"name":"Le Carrousel","stars":1,"street":"14 rue du Pont de Morge","postalCode":"63350","city":"MARINGUES"}
{"name":"Maison Rostang","stars":2,"street":"20 rue Rennequin","postalCode":"75017","city":"Paris"}
{"name":"Auberge de l'Ill","stars":3,"street":"2 rue de Collonges-au-Mont d'Or","postalCode":"68970","city":"Illhaeusern"}
{"name":"Le Sénéchal","stars":1,"street":"Sauveterre de Rouergue","postalCode":"12800","city":"Sauveterre-de-Rouergue"}
{"name":"La Grande Maison de Bernard Magrez","stars":2,"street":"10 Rue Labottière","postalCode":"33000","city":"Bordeaux"}
{"name":"Astrance","stars":3,"street":"4 r. Beethoven","postalCode":"75016","city":"Paris"}
{"name":"Le Clair de la Plume","stars":1,"street":"2 Place du Mail","postalCode":"26230","city":"Grignan"}
{"name":"La Scène","stars":1,"street":"33 Avenue George V","postalCode":"75008","city":"Paris"}
{"name":"La Balette","stars":1,"street":"rte de Port-Vendres","postalCode":"66190","city":"Collioure"}
{"name":"Anne de Bretagne","stars":2,"street":"163, Boulevard de la Tara","postalCode":"44770","city":"La Plaine-sur-Mer"}
{"name":"Le Cinq","stars":3,"street":"31 av. George V","postalCode":"75008","city":"Paris 08"}
{"name":"Le Kaïku","stars":1,"street":"17 r. de la République","postalCode":"64500","city":"Saint-Jean-de-Luz"}
{"name":"Les Voiles d'Or","stars":1,"street":"2 chemin de la Falaise","postalCode":"76200","city":"Dieppe"}
{"name":"Raphaël Vionnet","stars":1,"street":"43 Avenue du Général Leclerc","postalCode":"74200","city":"Thonon-les-Bains"}
{"name":"Le Colombier","stars":1,"street":"r. Loucheur","postalCode":"76550","city":"Offranville"}
{"name":"Likoké","stars":1,"street":"7 rte de Païolive","postalCode":"07140","city":"Les Vans"}
{"name":"Ed.Em","stars":1,"street":"4 imp. Chenevottes","postalCode":"21190","city":"Chassagne-Montrachet"}
{"name":"Shang Palace","stars":1,"street":"10 Avenue d'Iéna","postalCode":"75016","city":"Paris 16"}
{"name":"L'Ekrin by Laurent Azoulay","stars":1,"street":"Route de la Montée","postalCode":"73550","city":"MERIBEL"}
{"name":"Le Clos des Sens","stars":2,"street":"13 r. J. -Mermoz","postalCode":"74940","city":"Annecy"}
{"name":"Il Cortile","stars":1,"street":"11 r. des Franciscains","postalCode":"68100","city":"Mulhouse"}
{"name":"Loiseau des Ducs","stars":1,"street":"3 Rue Vauban","postalCode":"21000","city":"Dijon"}
