{"name":"La Bonne Étape","stars":1,"street":"chemin du lac","postalCode":"04160","city":"Château-Arnoux"}
{"name":"Auberge à la Bonne Idée","stars":1,"street":"3 rue des Meuniers","postalCode":"60350","city":"SAINT-JEAN-AUX-BOIS"}
{"name":"Le Kléber","stars":1,"street":"6 r. A. -Dumont","postalCode":"26400","city":"Crest"}
{"name":"Le Château de Sable","stars":1,"street":"38 r. de l'Europe","postalCode":"29840","city":"Porspoder"}
{"name":"Antoine","stars":1,"street":"10 av. de New-York","postalCode":"75116","city":"Paris 16"}
{"name":"L'Épuisette","stars":1,"street":"158 Vallon-des-Auffes","postalCode":"13007","city":"Marseille"}
{"name":"Tour d'Argent","stars":1,"street":"15 quai de la Tournelle","postalCode":"75005","city":"Paris"}
{"name":"Dyades au Domaine des Étangs","stars":1,"street":"Les Etangs","postalCode":"16310","city":"MASSIGNAC"}
{"name":"Chez Michèle","stars":1,"street":"57 rue Principale","postalCode":"57810","city":"Languimberg"}
{"name":"Rodolphe","stars":1,"street":"35 r. Percière","postalCode":"76000","city":"Rouen"}
{"name":"Ed.Em","stars":1,"street":"4 imp. Chenevottes","postalCode":"21190","city":"Chassagne-Montrachet"}
{"name":"Alliance","stars":1,"street":"5 Rue de Poissy","postalCode":"75005","city":"Paris"}
{"name":"L'Écrin","stars":1,"street":"10 place de la Concorde","postalCode":"75008","city":"Paris"}
{"name":"Auberge Frankenbourg","stars":1,"street":"13 r. Gén. de Gaulle","postalCode":"67730","city":"La Vancelle"}
{"name":"Auguste","stars":1,"street":"54 r. Bourgogne","postalCode":"75007","city":"Paris 07"}
{"name":"La Bastide St-Antoine","stars":1,"street":"48 av. Henri-Dunant","postalCode":"06130","city":"Grasse"}
{"name":"Meurin","stars":2,"street":"Rue de Lillers","postalCode":"62350","city":"Busnes"}
{"name":"Le Carré d'Alethius","stars":1,"street":"4 r. Paul-Bertois","postalCode":"07800","city":"Charmes-sur-Rhône"}
{"name":"Cobéa","stars":1,"street":"11 r. Raymond Losserand","postalCode":"75014","city":"Paris 14"}
{"name":"Le Moulin de la Gorce","stars":1,"street":"D17","postalCode":"87800","city":"La Roche-l'Abeille"}
{"name":"Les Terrasses de Lyon","stars":1,"street":"25, montée Saint BArthelémy","postalCode":"69005","city":"Lyon 05"}
{"name":"Flocons de Sel","stars":3,"street":"1775 rte du Leutaz","postalCode":"74120","city":"Megève"}
{"name":"Château d'Adoménil","stars":1,"street":"","postalCode":"54300","city":"Lunéville"}
{"name":"Raphaël Vionnet","stars":1,"street":"43 Avenue du Général Leclerc","postalCode":"74200","city":"Thonon-les-Bains"}
{"name":"Le Clarence","stars":2,"street":"31 Avenue Franklin Delano Roosevelt","postalCode":"75008","city":"Paris 08"}
{"name":"En Pleine Nature","stars":1,"street":"6 pl. de la Mairie","postalCode":"31130","city":"Fonsegrives"}
{"name":"Château de Courban","stars":1,"street":"7 rue du Lavoir","postalCode":"21520","city":"Courban"}
{"name":"Paul Bocuse","stars":3,"street":"40 Quai de la Plage","postalCode":"69660","city":"Collonges-au-Mont-d'Or"}
{"name":"Ô Flaveurs","stars":1,"street":"Château de Chilly","postalCode":"74140","city":"Douvaine"}
{"name":"Hostellerie la Montagne","stars":1,"street":"10 rue Pisseloup","postalCode":"52330","city":"COLOMBEY-LES-DEUX-EGLISES"}
{"name":"La Marelle","stars":1,"street":"1593 av. de Lyon","postalCode":"01960","city":"Péronnas"}
{"name":"Carré des Feuillants","stars":2,"street":"14 rue de Castiglione","postalCode":"75001","city":"Paris 01"}
{"name":"Val d'Auge","stars":1,"street":"805 av. du Gén.-de-Gaulle","postalCode":"59910","city":"Bondues"}
{"name":"La Madeleine","stars":1,"street":"1 Rue Alsace-Lorraine","postalCode":"89100","city":"Sens"}
{"name":"Julien Binz","stars":1,"street":"7 Rue des Cigognes","postalCode":"68770","city":"Ammerschwihr"}
{"name":"La Dame de Pic","stars":1,"street":"20 Rue du Louvre","postalCode":"75001","city":"Paris 01"}
{"name":"Maison Clovis","stars":1,"street":"19 bd Brotteaux","postalCode":"69006","city":"Lyon"}
{"name":"Le Pavillon des Boulevards","stars":1,"street":"120 r. Croix-de-Seguey","postalCode":"33000","city":"Bordeaux"}
{"name":"L'Auberge Basque","stars":1,"street":"quartier Helbarron","postalCode":"64310","city":"Saint-Pée-sur-Nivelle"}
{"name":"Pierre Gagnaire","stars":3,"street":"6 Rue Balzac","postalCode":"75008","city":"Paris 08"}
{"name":"Neige d'Été","stars":1,"street":"12 Rue de l'Amiral Roussin","postalCode":"75015","city":"Paris 15"}
{"name":"Restaurant du Château","stars":1,"street":"15 avenue des Reynats","postalCode":"24650","city":"Chancelade"}
{"name":"Hostellerie de Plaisance","stars":2,"street":"5 place du Clocher","postalCode":"33330","city":"Saint-Emilion"}
{"name":"Le Neuvième Art","stars":2,"street":"173 r. Cuvier","postalCode":"69006","city":"Lyon"}
{"name":"Le Grand Bleu","stars":1,"street":"43 av. de la Gare","postalCode":"24200","city":"Sarlat-la-Canéda"}
{"name":"Alcyone","stars":1,"street":"1 Place Daviel","postalCode":"13002","city":"MARSEILLE"}
{"name":"Le Strasbourg","stars":1,"street":"24 r. du Col. -Teyssier","postalCode":"57230","city":"Bitche"}
{"name":"Le Cerisier","stars":1,"street":"3 rue de la Gare","postalCode":"62840","city":"LAVENTIE"}
{"name":"William Frachot","stars":2,"street":"5 rue Michelet","postalCode":"21000","city":"DIJON"}
{"name":"Quai des Saveurs","stars":1,"street":"69 rue de la Gare","postalCode":"57300","city":"Hagondange"}
{"name":"La Maison d'à Côté","stars":1,"street":"17 rue de Chambord","postalCode":"41350","city":"Montlivault"}
{"name":"L'Escarbille","stars":1,"street":"8 Rue de Vélizy","postalCode":"92190","city":"Meudon"}
{"name":"Sylvestre","stars":2,"street":"79 rue St-Dominique","postalCode":"75007","city":"Paris"}
{"name":"La Nouvelle Auberge","stars":1,"street":"9 route Nationale","postalCode":"68230","city":"Wihr-au-Val"}
{"name":"Stéphane Carbone","stars":1,"street":"14 r. de Courtonne","postalCode":"14000","city":"Caen"}
{"name":"Girardin","stars":1,"street":"19 Rue des Têtes","postalCode":"68000","city":"Colmar"}
{"name":"Aida","stars":1,"street":"1 r. Pierre Leroux","postalCode":"75007","city":"Paris 07"}
{"name":"Armani Ristorante","stars":1,"street":"149 Boulevard Saint-Germain","postalCode":"75006","city":"Paris"}
{"name":"SaQuaNa","stars":2,"street":"22 pl. Hamelin","postalCode":"14600","city":"Honfleur"}
{"name":"Ze Kitchen Galerie","stars":1,"street":"4 r. des Grands-Augustins","postalCode":"75006","city":"Paris"}
{"name":"Pic","stars":3,"street":"285 avenue Victor Hugo","postalCode":"26000","city":"Valence"}
{"name":"Pierre Orsi","stars":1,"street":"Place Kléber","postalCode":"69006","city":"Lyon 06"}
{"name":"Au 14 Février","stars":2,"street":"Le Plâtre-Durand","postalCode":"71570","city":"Saint-Amour-Bellevue"}
{"name":"Christopher Coutanceau","stars":2,"street":"Promenade de la Concurrence","postalCode":"17000","city":"La Rochelle"}
{"name":"Assiette Champenoise","stars":3,"street":"40 av. Paul Vaillant-Couturier","postalCode":"51430","city":"Tinqueux"}
{"name":"Le Cloître","stars":1,"street":"Le Cloitre","postalCode":"04300","city":"Mane"}
{"name":"Le Restaurant","stars":1,"street":"13 rue des Beaux-Arts","postalCode":"75006","city":"Paris 06"}
{"name":"Le Meurice Alain Ducasse","stars":2,"street":"228 Rue de Rivoli","postalCode":"75001","city":"Paris"}
{"name":"Alain Llorca","stars":1,"street":"350 Route de Saint-Paul","postalCode":"06480","city":"La Colle-sur-Loup"}
{"name":"Le Roc Alto","stars":1,"street":"Quartier La Ville","postalCode":"05350","city":"SAINT-VERAN"}
{"name":"Le Georges","stars":1,"street":"22 pl. des Épars","postalCode":"28000","city":"CHARTRES"}
{"name":"L'Aquarelle","stars":1,"street":"71 A rte du Montil","postalCode":"17920","city":"Breuillet"}
{"name":"La Grande Cascade","stars":1,"street":"Bois de Boulogne, Carrefour de Longchamp","postalCode":"75016","city":"Paris"}
{"name":"Lasserre","stars":1,"street":"17 Avenue F. -D. -Roosevelt","postalCode":"75008","city":"Paris 08"}
{"name":"Restaurant du Palais Royal","stars":1,"street":"110 Galerie de Valois - Jardin du Palais Royal","postalCode":"75001","city":"Paris 01"}
{"name":"Georges Blanc","stars":3,"street":"pl. du Marché","postalCode":"01540","city":"Vonnas"}
{"name":"Benoit","stars":1,"street":"20 Rue St-Martin","postalCode":"75004","city":"Paris 04"}
{"name":"Le Millénaire","stars":1,"street":"4 rue Bertin","postalCode":"51100","city":"Reims"}
{"name":"Le Pergolèse","stars":1,"street":"40 Rue Pergolèse","postalCode":"75116","city":"Paris"}
{"name":"Frédéric Doucet","stars":1,"street":"2 avenue de la Libération","postalCode":"71120","city":"Charolles"}
{"name":"La Table Breizh Café","stars":1,"street":"7 quai Thomas","postalCode":"35260","city":"Cancale"}
{"name":"Le Gambetta","stars":1,"street":"12 r. Gambetta","postalCode":"49400","city":"Saumur"}
{"name":"Avel Vor","stars":1,"street":"25 r. de Locmalo","postalCode":"56290","city":"Port-Louis"}
{"name":"Maison Jeunet","stars":2,"street":"9 r. de l'Hôtel-de-Ville","postalCode":"39600","city":"Arbois"}
{"name":"Arpège","stars":3,"street":"84 Rue de Varenne","postalCode":"75007","city":"Paris"}
{"name":"Villa Archange","stars":2,"street":"Rue de l'Ouest","postalCode":"06110","city":"Le Cannet"}
{"name":"Aigue Marine","stars":1,"street":"5 r. M. -Berthelot","postalCode":"22220","city":"Tréguier"}
{"name":"Le Pré du Moulin","stars":1,"street":"rte de Ste-Cécile-les-Vignes","postalCode":"84830","city":"Sérignan-du-Comtat"}
{"name":"L'Axel","stars":1,"street":"43 r. de France","postalCode":"77300","city":"Fontainebleau"}
{"name":"Umami","stars":1,"street":"8 r. des Dentelles","postalCode":"67000","city":"Strasbourg"}
{"name":"Le Relais Bernard Loiseau","stars":2,"street":"2, rue d'Argentine","postalCode":"21210","city":"Saulieu"}
{"name":"Maison Kieny","stars":1,"street":"7 Rue du Général de Gaulle","postalCode":"68400","city":"Riedisheim"}
{"name":"L'Atelier de Joël Robuchon - Étoile","stars":1,"street":"133 av. des Champs-Élysées","postalCode":"75008","city":"Paris"}
{"name":"La Promenade","stars":1,"street":"2 promenade Jean-Jaurès","postalCode":"31590","city":"Verfeil"}
{"name":"La Maison des Bois - Marc Veyrat","stars":3,"street":"Chemin Rural de Manigod au Col de la Croix Fry","postalCode":"74230","city":"Manigod"}
{"name":"Une Île","stars":1,"street":"9 r. Max-Richard","postalCode":"49000","city":"Angers"}
{"name":"Le Skiff Club","stars":1,"street":"1 av. Louis-Gaume","postalCode":"33260","city":"La Teste-de-Buch"}
{"name":"Sushi B","stars":1,"street":"5 r. Rameau","postalCode":"75002","city":"Paris"}
{"name":"Paloma","stars":2,"street":"47 Avenue du Moulin de la Croix","postalCode":"06250","city":"Mougins"}
{"name":"La Bastide de Capelongue","stars":2,"street":"Chemin des Cabanes","postalCode":"84480","city":"Bonnieux"}
{"name":"La Table de Patrick Raingeard","stars":1,"street":"1312 av. Raymond-Poincaré","postalCode":"06360","city":"EZE-BORD-DE-MER"}
{"name":"Auberge Tiegezh","stars":1,"street":"7 Place de la Gare","postalCode":"56380","city":"Guer"}
{"name":"Haut Bonheur de la Table","stars":1,"street":"18 Grand-Place","postalCode":"59670","city":"Cassel"}
{"name":"La Table de la Bergerie","stars":1,"street":"La Bergerie","postalCode":"49380","city":"Champ-sur-Layon"}
{"name":"Domaine des Séquoias","stars":1,"street":"54 Vie-de-Boussieu","postalCode":"38300","city":"Ruy"}
{"name":"L'Arcane","stars":1,"street":"39 Rue Lamarck","postalCode":"75018","city":"Paris"}
{"name":"Le St-Placide","stars":1,"street":"6 place du poncel","postalCode":"35400","city":"Saint-Malo"}
{"name":"L'Arôme","stars":1,"street":"3 rue St-Philippe-du-Roule","postalCode":"75008","city":"Paris 08"}
{"name":"Jérôme Brochot","stars":1,"street":"Place Beaubernard","postalCode":"71300","city":"Montceau-les-Mines"}
{"name":"1217","stars":1,"street":"le bourg","postalCode":"69620","city":"Bagnols"}
{"name":"Mathieu Pacaud - Histoires","stars":2,"street":"85 Avenue Kléber","postalCode":"75016","city":"Paris"}
{"name":"Villa René Lalique","stars":2,"street":"18 Rue Bellevue","postalCode":"67290","city":"Wingen-sur-Moder"}
{"name":"Dan B. - La Table de Ventabren","stars":1,"street":"r. F. -Mistral","postalCode":"13122","city":"Ventabren"}
{"name":"La Grignotière","stars":1,"street":"6 Rue Jean Jaures","postalCode":"59590","city":"Raismes"}
{"name":"Le Vivarais","stars":1,"street":"5 avenue Expilly","postalCode":"07600","city":"VALS-LES-BAINS"}
{"name":"La Bonne Auberge","stars":1,"street":"15 r. Nationale","postalCode":"57350","city":"Stiring-Wendel"}
{"name":"Loiseau des Vignes","stars":1,"street":"31 Rue Jean Francois Maufoux","postalCode":"21200","city":"Beaune"}
{"name":"La Chaumière","stars":1,"street":"346 av. du Mar. -Juin","postalCode":"39100","city":"Dole"}
{"name":"Château de Sully","stars":1,"street":"D6","postalCode":"14400","city":"Sully"}
{"name":"Les Pêcheurs","stars":1,"street":"10 boulevard du Maréchal-Juin","postalCode":"06600","city":"Antibes"}
{"name":"La Tour","stars":1,"street":"31 Nouvelle-Place","postalCode":"18300","city":"Sancerre"}
{"name":"Le Violon d'Ingres","stars":1,"street":"135 Rue Saint-Dominique","postalCode":"75007","city":"Paris"}
{"name":"Restaurant de Lauzun","stars":1,"street":"3 bd de l'Esplanade","postalCode":"34150","city":"Gignac"}
{"name":"Radio","stars":1,"street":"43 av. P. et M.-Curie","postalCode":"63400","city":"Chamalières"}
{"name":"Le Moulin du Roc","stars":1,"street":"Avenue Eugène Le Roy","postalCode":"24530","city":"Champagnac-de-Belair"}
{"name":"Relais de la Poste","stars":2,"street":"24 avenue de Maremne","postalCode":"40140","city":"Magescq"}
{"name":"Les Trois Rochers","stars":1,"street":"16 rue du Phare","postalCode":"29120","city":"Sainte-Marine"}
{"name":"La Coopérative","stars":1,"street":"2A Route de Caladroy","postalCode":"66720","city":"Bélesta"}
{"name":"Fanny Rey & Jonathan Wahid","stars":1,"street":"12, boulevard Mirabeau","postalCode":"13210","city":"SAINT REMY DE PROVENCE"}
{"name":"L'Orangerie du Château","stars":1,"street":"1 Avenue du Docteur Jean Laigret","postalCode":"41000","city":"Blois"}
{"name":"Le Gourmet de Sèze","stars":1,"street":"125 Rue de Sèze","postalCode":"69006","city":"Lyon"}
{"name":"La Côte Saint-Jacques","stars":2,"street":"14 faubourg de Paris","postalCode":"89300","city":"Joigny"}
{"name":"I Salti","stars":1,"street":"route du Reginu","postalCode":"20226","city":"Belgodère"}
{"name":"La Villa Madie","stars":2,"street":"av. du Revestel","postalCode":"13260","city":"Cassis"}
{"name":"Domaine des Hauts de Loire","stars":2,"street":"79 rue Gilbert Navard","postalCode":"41150","city":"Onzain"}
{"name":"Albert 1er","stars":2,"street":"38 rte du Bouchet","postalCode":"74400","city":"Chamonix-Mont-Blanc"}
{"name":"Cobéa","stars":1,"street":"11 r. Raymond Losserand","postalCode":"75014","city":"Paris 14"}
{"name":"Mariottat","stars":1,"street":"25 r. L.-Vivent","postalCode":"47000","city":"Agen"}
{"name":"L'Épuisette","stars":1,"street":"158 Vallon-des-Auffes","postalCode":"13007","city":"Marseille"}
{"name":"Auguste","stars":1,"street":"54 r. Bourgogne","postalCode":"75007","city":"Paris 07"}
{"name":"Auberge du Dun","stars":1,"street":"3 rte de Dieppe","postalCode":"76740","city":"Le Bourg-Dun"}
{"name":"Gaya Rive Gauche par Pierre Gagnaire","stars":1,"street":"44 r. du Bac","postalCode":"75007","city":"Paris"}
{"name":"Sylvestre","stars":2,"street":"79 rue St-Dominique","postalCode":"75007","city":"Paris"}
{"name":"Alcyone","stars":1,"street":"1 Place Daviel","postalCode":"13002","city":"MARSEILLE"}
{"name":"Alliance","stars":1,"street":"5 Rue de Poissy","postalCode":"75005","city":"Paris"}
{"name":"La Bonne Étape","stars":1,"street":"chemin du lac","postalCode":"04160","city":"Château-Arnoux"}
{"name":"Château de Courban","stars":1,"street":"7 rue du Lavoir","postalCode":"21520","city":"Courban"}
{"name":"Antoine","stars":1,"street":"10 av. de New-York","postalCode":"75116","city":"Paris 16"}
{"name":"Ed.Em","stars":1,"street":"4 imp. Chenevottes","postalCode":"21190","city":"Chassagne-Montrachet"}
{"name":"Dyades au Domaine des Étangs","stars":1,"street":"Les Etangs","postalCode":"16310","city":"MASSIGNAC"}
{"name":"Auberge Frankenbourg","stars":1,"street":"13 r. Gén. de Gaulle","postalCode":"67730","city":"La Vancelle"}
{"name":"Le Strasbourg","stars":1,"street":"24 r. du Col. -Teyssier","postalCode":"57230","city":"Bitche"}
{"name":"Les Terrasses de Lyon","stars":1,"street":"25, montée Saint BArthelémy","postalCode":"69005","city":"Lyon 05"}
{"name":"Le Passe Temps","stars":1,"street":"52 Rue Tronchet","postalCode":"69006","city":"Lyon"}
{"name":"Restaurant du Château","stars":1,"street":"15 avenue des Reynats","postalCode":"24650","city":"Chancelade"}
{"name":"La Table du 11","stars":1,"street":"8 rue de la chancellerie","postalCode":"78000","city":"Versailles"}
{"name":"L'Escarbille","stars":1,"street":"8 Rue de Vélizy","postalCode":"92190","city":"Meudon"}
{"name":"Hostellerie de Plaisance","stars":2,"street":"5 place du Clocher","postalCode":"33330","city":"Saint-Emilion"}
{"name":"Flocons de Sel","stars":3,"street":"1775 rte du Leutaz","postalCode":"74120","city":"Megève"}
{"name":"Le Carré d'Alethius","stars":1,"street":"4 r. Paul-Bertois","postalCode":"07800","city":"Charmes-sur-Rhône"}
{"name":"William Frachot","stars":2,"street":"5 rue Michelet","postalCode":"21000","city":"DIJON"}
{"name":"La Balette","stars":1,"street":"rte de Port-Vendres","postalCode":"66190","city":"Collioure"}
{"name":"La Bastide St-Antoine","stars":1,"street":"48 av. Henri-Dunant","postalCode":"06130","city":"Grasse"}
{"name":"En Pleine Nature","stars":1,"street":"6 pl. de la Mairie","postalCode":"31130","city":"Fonsegrives"}
{"name":"Umami","stars":1,"street":"8 r. des Dentelles","postalCode":"67000","city":"Strasbourg"}
{"name":"Château d'Adoménil","stars":1,"street":"","postalCode":"54300","city":"Lunéville"}
{"name":"Le Cerisier","stars":1,"street":"3 rue de la Gare","postalCode":"62840","city":"LAVENTIE"}
{"name":"Mère Brazier","stars":2,"street":"12 rue Royale","postalCode":"69001","city":"LYON"}
{"name":"Le Mas du Langoustier","stars":1,"street":"","postalCode":"83400","city":"Hyères"}
{"name":"Le Kléber","stars":1,"street":"6 r. A. -Dumont","postalCode":"26400","city":"Crest"}
{"name":"Le Pavillon des Boulevards","stars":1,"street":"120 r. Croix-de-Seguey","postalCode":"33000","city":"Bordeaux"}
{"name":"Pierre Gagnaire","stars":3,"street":"6 Rue Balzac","postalCode":"75008","city":"Paris 08"}
{"name":"Likoké","stars":1,"street":"7 rte de Païolive","postalCode":"07140","city":"Les Vans"}
{"name":"La Grande Cascade","stars":1,"street":"Bois de Boulogne, Carrefour de Longchamp","postalCode":"75016","city":"Paris"}
{"name":"Chez Michèle","stars":1,"street":"57 rue Principale","postalCode":"57810","city":"Languimberg"}
{"name":"Le Pergolèse","stars":1,"street":"40 Rue Pergolèse","postalCode":"75116","city":"Paris"}
{"name":"Auberge du Vert Mont","stars":1,"street":"1318 r. du Mont-Noir","postalCode":"59299","city":"Boeschepe"}
{"name":"Le Violon d'Ingres","stars":1,"street":"135 Rue Saint-Dominique","postalCode":"75007","city":"Paris"}
{"name":"Le Foch","stars":1,"street":"37 bd Foch","postalCode":"51100","city":"Reims"}
{"name":"Le Moulin du Roc","stars":1,"street":"Avenue Eugène Le Roy","postalCode":"24530","city":"Champagnac-de-Belair"}
{"name":"Arpège","stars":3,"street":"84 Rue de Varenne","postalCode":"75007","city":"Paris"}
{"name":"Ô Flaveurs","stars":1,"street":"Château de Chilly","postalCode":"74140","city":"Douvaine"}
{"name":"Le Saint-Estève","stars":1,"street":"2250 route cézanne D17","postalCode":"13100","city":"Le Tholonet"}
{"name":"Le Chiberta","stars":1,"street":"3 Rue Arsène Houssaye","postalCode":"75008","city":"Paris 08"}
{"name":"Le Champ des Lunes","stars":1,"street":"route de Roquefraîche","postalCode":"84360","city":"Lauris"}
{"name":"Prairial","stars":1,"street":"11 Rue Chavanne","postalCode":"69001","city":"Lyon"}
{"name":"Faventia","stars":1,"street":"3100 route de Bagnols-en-Forêt","postalCode":"83440","city":"Tourrettes"}
{"name":"Albert 1er","stars":2,"street":"38 rte du Bouchet","postalCode":"74400","city":"Chamonix-Mont-Blanc"}
{"name":"Le Patio","stars":1,"street":"10 bd de la Plage","postalCode":"33120","city":"Arcachon"}
{"name":"Auberge à la Bonne Idée","stars":1,"street":"3 rue des Meuniers","postalCode":"60350","city":"SAINT-JEAN-AUX-BOIS"}
{"name":"La Nouvelle Auberge","stars":1,"street":"9 route Nationale","postalCode":"68230","city":"Wihr-au-Val"}
{"name":"La Merise","stars":1,"street":"7 r. d'Eschbach","postalCode":"67580","city":"Laubach"}
{"name":"Le Beaulieu","stars":1,"street":"34 Bis Place République","postalCode":"72000","city":"Le Mans"}
{"name":"I Salti","stars":1,"street":"route du Reginu","postalCode":"20226","city":"Belgodère"}
{"name":"La Maison des Bois - Marc Veyrat","stars":3,"street":"Chemin Rural de Manigod au Col de la Croix Fry","postalCode":"74230","city":"Manigod"}
{"name":"Maison Jeunet","stars":2,"street":"9 r. de l'Hôtel-de-Ville","postalCode":"39600","city":"Arbois"}
{"name":"Avel Vor","stars":1,"street":"25 r. de Locmalo","postalCode":"56290","city":"Port-Louis"}
{"name":"Les Trois Soleils de Montal","stars":1,"street":"St-Jean-Lespinasse","postalCode":"46400","city":"Saint-Céré"}
{"name":"Casadelmar","stars":2,"street":"Route de la Plage de Palombaggia","postalCode":"20137","city":"Porto-Vecchio"}
{"name":"Villa Archange","stars":2,"street":"Rue de l'Ouest","postalCode":"06110","city":"Le Cannet"}
{"name":"Armani Ristorante","stars":1,"street":"149 Boulevard Saint-Germain","postalCode":"75006","city":"Paris"}
{"name":"La Bastide de Capelongue","stars":2,"street":"Chemin des Cabanes","postalCode":"84480","city":"Bonnieux"}
{"name":"La Vieille Tour","stars":1,"street":"75 r. de la Tour","postalCode":"22190","city":"Plérin"}
{"name":"Christopher Coutanceau","stars":2,"street":"Promenade de la Concurrence","postalCode":"17000","city":"La Rochelle"}
{"name":"La Tour","stars":1,"street":"31 Nouvelle-Place","postalCode":"18300","city":"Sancerre"}
{"name":"L'Auberge Basque","stars":1,"street":"quartier Helbarron","postalCode":"64310","city":"Saint-Pée-sur-Nivelle"}
{"name":"Stéphane Carbone","stars":1,"street":"14 r. de Courtonne","postalCode":"14000","city":"Caen"}
{"name":"La Petite Maison de Cucuron","stars":1,"street":"pl. de l'Étang","postalCode":"84160","city":"Cucuron"}
{"name":"La Table des Blot - Auberge du Château","stars":1,"street":"1 Grande-Rue","postalCode":"78720","city":"Dampierre-en-Yvelines"}
{"name":"L'Aquarelle","stars":1,"street":"71 A rte du Montil","postalCode":"17920","city":"Breuillet"}
{"name":"Les Trois Rochers","stars":1,"street":"16 rue du Phare","postalCode":"29120","city":"Sainte-Marine"}
{"name":"Dan B. - La Table de Ventabren","stars":1,"street":"r. F. -Mistral","postalCode":"13122","city":"Ventabren"}
{"name":"SaQuaNa","stars":2,"street":"22 pl. Hamelin","postalCode":"14600","city":"Honfleur"}
{"name":"Auberge Tiegezh","stars":1,"street":"7 Place de la Gare","postalCode":"56380","city":"Guer"}
{"name":"Loiseau rive Gauche","stars":1,"street":"5 rue de Bourgogne","postalCode":"75007","city":"Paris 07"}
{"name":"Terre-Mer","stars":1,"street":"16 r. du Jeu-de-Paume","postalCode":"56400","city":"Auray"}
{"name":"Alain Llorca","stars":1,"street":"350 Route de Saint-Paul","postalCode":"06480","city":"La Colle-sur-Loup"}
{"name":"La Passagère","stars":1,"street":"33 boulevard E. -Baudoin","postalCode":"06160","city":"Juan-les-Pins"}
{"name":"Le Grand Cerf","stars":1,"street":"50 rte Nationale","postalCode":"51500","city":"Montchenot"}
{"name":"Pierre Orsi","stars":1,"street":"Place Kléber","postalCode":"69006","city":"Lyon 06"}
{"name":"Auberge La Fenière","stars":1,"street":"D943","postalCode":"84160","city":"Cadenet"}
{"name":"Lucas Carton","stars":1,"street":"9 pl. de la Madeleine","postalCode":"75008","city":"Paris 08"}
{"name":"Une Île","stars":1,"street":"9 r. Max-Richard","postalCode":"49000","city":"Angers"}
{"name":"1217","stars":1,"street":"le bourg","postalCode":"69620","city":"Bagnols"}
{"name":"Restaurant du Palais Royal","stars":1,"street":"110 Galerie de Valois - Jardin du Palais Royal","postalCode":"75001","city":"Paris 01"}
{"name":"Jérôme Brochot","stars":1,"street":"Place Beaubernard","postalCode":"71300","city":"Montceau-les-Mines"}
{"name":"La Marelle","stars":1,"street":"1593 av. de Lyon","postalCode":"01960","city":"Péronnas"}
{"name":"Les Chênes Verts","stars":1,"street":"rte de Villecroze","postalCode":"83690","city":"Tourtour"}
{"name":"L'Esquisse","stars":1,"street":"21 rue Royale","postalCode":"74000","city":"Annecy"}
{"name":"L'Ekrin by Laurent Azoulay","stars":1,"street":"Route de la Montée","postalCode":"73550","city":"MERIBEL"}
{"name":"La Vague d'Or","stars":3,"street":"Plage de Bouillabaisse","postalCode":"83990","city":"Saint-Tropez"}
{"name":"Alexandre","stars":2,"street":"2 rue Xavier Tronc","postalCode":"30128","city":"Garons"}
{"name":"L'Oustau de Baumanière","stars":2,"street":"Village des Baux-de-Provence","postalCode":"13520","city":"Les Baux-de-Provence"}
{"name":"Pic","stars":3,"street":"285 avenue Victor Hugo","postalCode":"26000","city":"Valence"}
{"name":"Les Ducs de Lorraine","stars":1,"street":"5 av. Provence","postalCode":"88000","city":"Épinal"}
{"name":"La Tour des Vents","stars":1,"street":"Le Moulin de Malfourat","postalCode":"24240","city":"Monbazillac"}
{"name":"Radio","stars":1,"street":"43 av. P. et M.-Curie","postalCode":"63400","city":"Chamalières"}
{"name":"Le Petit Hôtel du Grand Large","stars":1,"street":"11 quai St-Ivy","postalCode":"56510","city":"Portivy"}
{"name":"Château de la Treyne","stars":1,"street":"","postalCode":"46200","city":"Lacave"}
{"name":"Hexagone","stars":1,"street":"85 Avenue Kléber","postalCode":"75016","city":"Paris"}
{"name":"Montée","stars":1,"street":"9 r. Léopold-Robert","postalCode":"75014","city":"Paris"}
{"name":"Le P'tit Polyte","stars":1,"street":"2 Rue de la Chapelle","postalCode":"38860","city":"Les Deux Alpes"}
{"name":"Loiseau des Vignes","stars":1,"street":"31 Rue Jean Francois Maufoux","postalCode":"21200","city":"Beaune"}
{"name":"Le Chiquito","stars":1,"street":"3 r. de l'Oise, La Bonneville","postalCode":"95540","city":"Méry-sur-Oise"}
{"name":"Le Jardin de Benjamin","stars":1,"street":"Route de Salernes","postalCode":"83510","city":"Lorgues"}
{"name":"Le Pêché Gourmand","stars":1,"street":"2 rte de Gap","postalCode":"05100","city":"Briançon"}
{"name":"L'Essentiel","stars":1,"street":"8 r. de la Clarté","postalCode":"24000","city":"Périgueux"}
{"name":"Laurent","stars":1,"street":"41 av. Gabriel","postalCode":"75008","city":"Paris"}
{"name":"Kei","stars":2,"street":"5 rue du Coq-Héron","postalCode":"75001","city":"Paris 01"}
{"name":"Le Taillevent","stars":2,"street":"15 Rue Lamennais","postalCode":"75008","city":"Paris"}
{"name":"Le Quincangrogne","stars":1,"street":"7 Rue de l'Abreuvoir","postalCode":"77400","city":"Dampmart"}
{"name":"L'Atelier d'Edmond","stars":2,"street":"au Fornet","postalCode":"73150","city":"Val-d'Isère"}
{"name":"Hostellerie de l'Abbaye de la Celle","stars":1,"street":"10 Place Général de Gaulle","postalCode":"83170","city":"La Celle"}
{"name":"Aigue Marine","stars":1,"street":"5 r. M. -Berthelot","postalCode":"22220","city":"Tréguier"}
{"name":"Frédéric Simonin","stars":1,"street":"25 rue Bayen","postalCode":"75017","city":"Paris"}
{"name":"L'Amphitryon","stars":1,"street":"127 r. du Col. -Müller","postalCode":"56100","city":"Lorient"}
{"name":"L'Orée de la Forêt","stars":1,"street":"255 r. de la Forêt","postalCode":"60600","city":"Étouy"}
{"name":"Ô Saveurs","stars":1,"street":"8 place Ormeaux au village","postalCode":"31180","city":"ROUFFIAC-TOLOSAN"}
{"name":"Auberge de la Tour","stars":1,"street":"Place de la Fontaine","postalCode":"15220","city":"MARCOLES"}
{"name":"Le Domaine du Colombier","stars":1,"street":"270 Chemin de Malombre","postalCode":"26780","city":"Malataverne"}
{"name":"Chapelle Saint-Martin","stars":1,"street":"33, Saint Martin du Fault","postalCode":"87510","city":"Nieul"}
{"name":"La Villa Madie","stars":2,"street":"av. du Revestel","postalCode":"13260","city":"Cassis"}
{"name":"Le Mascaret","stars":1,"street":"1 r. de Bas","postalCode":"50560","city":"Blainville-sur-Mer"}
{"name":"Les Bacchanales","stars":1,"street":"247 avenue de Provence","postalCode":"06140","city":"VENCE"}
{"name":"Il Carpaccio","stars":1,"street":"37 avenue Hoche","postalCode":"75008","city":"Paris 08"}
{"name":"1912","stars":1,"street":"bd de la Cahotte","postalCode":"14360","city":"Trouville-sur-Mer"}
{"name":"David Toutain","stars":1,"street":"29 r. Surcouf","postalCode":"75007","city":"Paris"}
{"name":"Apicius","stars":1,"street":"Marché Saint Pierre 1 étage","postalCode":"63000","city":"Clermont-Ferrand"}
{"name":"Patrick Jeffroy","stars":2,"street":"20 rue du Kelenn","postalCode":"29660","city":"Carantec"}
{"name":"Pertica","stars":1,"street":"15 pl. de la République","postalCode":"41100","city":"Vendôme"}
{"name":"Domaine des Hauts de Loire","stars":2,"street":"79 rue Gilbert Navard","postalCode":"41150","city":"Onzain"}
{"name":"Le Chantecler","stars":2,"street":"37 Promenade des Anglais","postalCode":"06000","city":"NICE"}
{"name":"Guy Savoy","stars":3,"street":"Monnaie de Paris11 Quai de Conti","postalCode":"75006","city":"Paris"}
{"name":"L'Ambroisie","stars":3,"street":"9 Place des Vosges","postalCode":"75004","city":"Paris"}
{"name":"Domaine des Séquoias","stars":1,"street":"54 Vie-de-Boussieu","postalCode":"38300","city":"Ruy"}
{"name":"Yoann Conte","stars":2,"street":"13 Vieille-Route-des-Pensières","postalCode":"74290","city":"Veyrier-du-Lac"}
{"name":"Les Pêcheurs","stars":1,"street":"10 boulevard du Maréchal-Juin","postalCode":"06600","city":"Antibes"}
{"name":"Les Trois Dômes","stars":1,"street":"20 quai Gailleton","postalCode":"69002","city":"Lyon"}
{"name":"Anne de Bretagne","stars":2,"street":"163, Boulevard de la Tara","postalCode":"44770","city":"La Plaine-sur-Mer"}
{"name":"Les Explorateurs","stars":1,"street":"place du Slalom","postalCode":"73440","city":"VAL THORENS"}
{"name":"Passage 53","stars":2,"street":"53 passage des Panoramas","postalCode":"75002","city":"Paris"}
