[{"name":"Ithurria","stars":1,"street":"pl. du Fronton","postalCode":"64250","city":"Ainhoa"},
{"name":"L'Essentiel","stars":1,"street":"29 Rue Mirabeau","postalCode":"14800","city":"DEAUVILLE"},
{"name":"L'Auberge Basque","stars":1,"street":"quartier Helbarron","postalCode":"64310","city":"Saint-Pée-sur-Nivelle"},
{"name":"Le Bénaton","stars":1,"street":"25 Rue du Faubourg-Bretonnière","postalCode":"21200","city":"BEAUNE"},
{"name":"La Marelle","stars":1,"street":"1593 av. de Lyon","postalCode":"01960","city":"Péronnas"},
{"name":"Le Cap","stars":1,"street":"71 Boulevard du Général-de-Gaulle","postalCode":"06230","city":"SAINT-JEAN-CAP-FERRAT"},
{"name":"Château de Mercuès","stars":1,"street":"Route du Château","postalCode":"46090","city":"Mercuès"},
{"name":"En Marge","stars":1,"street":"1204 route de la Croix-Falgarde","postalCode":"31320","city":"AUREVILLE"},
{"name":"Château de Courban","stars":1,"street":"7 rue du Lavoir","postalCode":"21520","city":"Courban"},
{"name":"Le Moulin de l'Abbaye","stars":1,"street":"1 avenue Pierre de Bourdeilles","postalCode":"24310","city":"BRANTOME"},
{"name":"Le Pergolèse","stars":1,"street":"40 Rue Pergolèse","postalCode":"75116","city":"Paris"},
{"name":"Chez Michèle","stars":1,"street":"57 rue Principale","postalCode":"57810","city":"Languimberg"},
{"name":"Dyades au Domaine des Étangs","stars":1,"street":"Les Etangs","postalCode":"16310","city":"MASSIGNAC"},
{"name":"Le Kléber","stars":1,"street":"6 r. A. -Dumont","postalCode":"26400","city":"Crest"},
{"name":"Aux Anges","stars":1,"street":"6 Place Georges Clemenceau","postalCode":"42300","city":"Roanne"},
{"name":"Pierre Gagnaire","stars":3,"street":"6 Rue Balzac","postalCode":"75008","city":"Paris 08"},
{"name":"Auberge au Boeuf","stars":1,"street":"Rue de l'Eglise","postalCode":"67770","city":"Sessenheim"},
{"name":"La Chaumière","stars":1,"street":"346 av. du Mar. -Juin","postalCode":"39100","city":"Dole"},
{"name":"Auguste","stars":1,"street":"54 r. Bourgogne","postalCode":"75007","city":"Paris 07"},
{"name":"Xavier Mathieu","stars":1,"street":"Route de Murs","postalCode":"84220","city":"Joucas"},
{"name":"Les Terrasses d'Uriage","stars":2,"street":"pl. Déesse-Hygie","postalCode":"38410","city":"Uriage-les-Bains"},
{"name":"Le Cerisier","stars":1,"street":"3 rue de la Gare","postalCode":"62840","city":"LAVENTIE"},
{"name":"Loiseau des Vignes","stars":1,"street":"31 Rue Jean Francois Maufoux","postalCode":"21200","city":"Beaune"},
{"name":"Le Pressoir d'Argent - Gordon Ramsay","stars":2,"street":"2,5 Place de la Comédie","postalCode":"33000","city":"Bordeaux"},
{"name":"L'Olivier","stars":1,"street":"25 Route des Carles","postalCode":"83990","city":"Saint-Tropez"},
{"name":"Le Petit Nice","stars":3,"street":"Anse de Maldormé - Corniche J. F. Kennedy","postalCode":"13007","city":"Marseille 07"},
{"name":"Alain Ducasse au Plaza Athénée","stars":3,"street":"25 avenue Montaigne","postalCode":"75008","city":"Paris"},
{"name":"1217","stars":1,"street":"le bourg","postalCode":"69620","city":"Bagnols"},
{"name":"Arpège","stars":3,"street":"84 Rue de Varenne","postalCode":"75007","city":"Paris"},
{"name":"La Closerie","stars":1,"street":"bd des Platanes","postalCode":"84240","city":"Ansouis"},
{"name":"Auberge de la Mine","stars":1,"street":"le Gué-Plat","postalCode":"61450","city":"La Ferrière-aux-Étangs"},
{"name":"Paloma","stars":2,"street":"47 Avenue du Moulin de la Croix","postalCode":"06250","city":"Mougins"},
{"name":"Quinsou","stars":1,"street":"33 r. de l'Abbé-Grégoire","postalCode":"75006","city":"Paris"},
{"name":"Alliance","stars":1,"street":"5 Rue de Poissy","postalCode":"75005","city":"Paris"},
{"name":"La Table de la Bergerie","stars":1,"street":"La Bergerie","postalCode":"49380","city":"Champ-sur-Layon"},
{"name":"Les Clefs d'Argent","stars":1,"street":"333 Avenue des Martyrs de la Résistance","postalCode":"40000","city":"Mont-de-Marsan"},
{"name":"Astrance","stars":3,"street":"4 r. Beethoven","postalCode":"75016","city":"Paris"},
{"name":"Auberge de la Brie","stars":1,"street":"14 av. Alphonse Boulingre","postalCode":"77860","city":"Couilly-Pont-aux-Dames"},
{"name":"Le Strasbourg","stars":1,"street":"24 r. du Col. -Teyssier","postalCode":"57230","city":"Bitche"},
{"name":"Maison Lameloise","stars":3,"street":"36 pl. d'Armes","postalCode":"71150","city":"Chagny"},
{"name":"Likoké","stars":1,"street":"7 rte de Païolive","postalCode":"07140","city":"Les Vans"},
{"name":"Le Mascaret","stars":1,"street":"1 r. de Bas","postalCode":"50560","city":"Blainville-sur-Mer"},
{"name":"La Galinette","stars":1,"street":"23 r. Jean Payra","postalCode":"66000","city":"Perpignan"},
{"name":"La Voile","stars":1,"street":"chemin de la Quessine","postalCode":"83350","city":"Ramatuelle"},
{"name":"Shang Palace","stars":1,"street":"10 Avenue d'Iéna","postalCode":"75016","city":"Paris 16"},
{"name":"Le Gambetta","stars":1,"street":"12 r. Gambetta","postalCode":"49400","city":"Saumur"},
{"name":"Le Colombier","stars":1,"street":"r. Loucheur","postalCode":"76550","city":"Offranville"},
{"name":"Château d'Adoménil","stars":1,"street":"","postalCode":"54300","city":"Lunéville"},
{"name":"Kasbür","stars":1,"street":"8 Rue de Dettwiller","postalCode":"67700","city":"Monswiller"},
{"name":"Chapelle Saint-Martin","stars":1,"street":"33, Saint Martin du Fault","postalCode":"87510","city":"Nieul"},
{"name":"Logis de la Cadène","stars":1,"street":"Place du Marche au Bois","postalCode":"33330","city":"Saint Emilion"},
{"name":"Le 1947","stars":3,"street":"Cheval Blanc Courchevel - Le Jardin Alpin","postalCode":"73120","city":"Courchevel 1850"},
{"name":"Hostellerie Bérard","stars":1,"street":"Avenue Gabriel-Péri","postalCode":"83740","city":"LA-CADIERE-D'AZUR"},
{"name":"Les Rosiers","stars":1,"street":"32 av. Beau Soleil","postalCode":"64200","city":"Biarritz"},
{"name":"Le Clos des Sens","stars":2,"street":"13 r. J. -Mermoz","postalCode":"74940","city":"Annecy"},
{"name":"Le Saison","stars":1,"street":"1 imp. du Vieux-Bourg","postalCode":"35760","city":"Saint-Grégoire"},
{"name":"Penati al Baretto","stars":1,"street":"9 rue Balzac","postalCode":"75008","city":"Paris 08"},
{"name":"La Table du Connétable","stars":1,"street":"4 Rue du Connétable","postalCode":"60500","city":"Chantilly"},
{"name":"La Gourmandière - La Table d'Olivier","stars":1,"street":"D126","postalCode":"56000","city":"Vannes"},
{"name":"Quai des Saveurs","stars":1,"street":"69 rue de la Gare","postalCode":"57300","city":"Hagondange"},
{"name":"Le Petit Hôtel du Grand Large","stars":1,"street":"11 quai St-Ivy","postalCode":"56510","city":"Portivy"},
{"name":"René et Maxime Meilleur","stars":3,"street":"Saint Marcel","postalCode":"73440","city":"Saint-Martin-de-Belleville"},
{"name":"Le M","stars":1,"street":"22 r. du Cdt-Drogou","postalCode":"29200","city":"Brest"},
{"name":"Flocons de Sel","stars":3,"street":"1775 rte du Leutaz","postalCode":"74120","city":"Megève"},
{"name":"Kei","stars":2,"street":"5 rue du Coq-Héron","postalCode":"75001","city":"Paris 01"},
{"name":"Le Belrose","stars":1,"street":"Boulevard des Crêtes","postalCode":"83580","city":"Gassin"},
{"name":"Auberge Frankenbourg","stars":1,"street":"13 r. Gén. de Gaulle","postalCode":"67730","city":"La Vancelle"},
{"name":"Julien Binz","stars":1,"street":"7 Rue des Cigognes","postalCode":"68770","city":"Ammerschwihr"},
{"name":"Les Explorateurs","stars":1,"street":"place du Slalom","postalCode":"73440","city":"VAL THORENS"},
{"name":"Le Cinq","stars":3,"street":"31 av. George V","postalCode":"75008","city":"Paris 08"},
{"name":"Flaveur","stars":2,"street":"25 Rue Gubernatis","postalCode":"06000","city":"Nice"},
{"name":"Helen","stars":1,"street":"3 r.Berryer","postalCode":"75008","city":"Paris"},
{"name":"Auberge de Clochemerle","stars":1,"street":"Rue Gabriel-Chevallier","postalCode":"69460","city":"VAUX-EN-BEAUJOLAIS"},
{"name":"L'Atelier Yssoirien","stars":1,"street":"39 Boulevard Triozon-Bayle","postalCode":"63500","city":"Issoire"},
{"name":"La Balette","stars":1,"street":"rte de Port-Vendres","postalCode":"66190","city":"Collioure"},
{"name":"Les Terraillers","stars":1,"street":"11 Route Chemin-Neuf","postalCode":"06410","city":"Biot"},
{"name":"L'Ekrin by Laurent Azoulay","stars":1,"street":"Route de la Montée","postalCode":"73550","city":"MERIBEL"},
{"name":"Le Figuier de St-Esprit","stars":1,"street":"7, Promenade Amiral de Grasse","postalCode":"06600","city":"Antibes"},
{"name":"Les Ducs de Lorraine","stars":1,"street":"5 av. Provence","postalCode":"88000","city":"Épinal"},
{"name":"Passage 53","stars":2,"street":"53 passage des Panoramas","postalCode":"75002","city":"Paris"},
{"name":"L'Arôme","stars":1,"street":"3 rue St-Philippe-du-Roule","postalCode":"75008","city":"Paris 08"},
{"name":"La Scène","stars":1,"street":"33 Avenue George V","postalCode":"75008","city":"Paris"},
{"name":"Le Patio","stars":1,"street":"10 bd de la Plage","postalCode":"33120","city":"Arcachon"},
{"name":"Alexandre","stars":2,"street":"2 rue Xavier Tronc","postalCode":"30128","city":"Garons"},
{"name":"Mickaël Féval","stars":1,"street":"11 Petite-Rue-St-Jean","postalCode":"13100","city":"Aix-en-Provence"},
{"name":"L'Amphitryon","stars":1,"street":"chemin de Gramont","postalCode":"31770","city":"Colomiers"},
{"name":"La Table de l'Espadon","stars":2,"street":"15 Place Vendôme","postalCode":"75001","city":"Paris"},
{"name":"Le France","stars":1,"street":"8 place Cupillard","postalCode":"25130","city":"VILLERS-LE-LAC"},
{"name":"Le Clair de la Plume","stars":1,"street":"2 Place du Mail","postalCode":"26230","city":"Grignan"},
{"name":"Le Vivier","stars":1,"street":"800 cours F. Peyre (rte de Carpentras)","postalCode":"84800","city":"L'Isle-sur-la-Sorgue"},
{"name":"Serge Vieira","stars":2,"street":"Château du Couffour","postalCode":"15110","city":"Chaudes-Aigues"},
{"name":"Les Prés d'Eugénie - Michel Guérard","stars":3,"street":"pl. de l'Impératrice","postalCode":"40320","city":"Eugénie-les-Bains"},
{"name":"Anne de Bretagne","stars":2,"street":"163, Boulevard de la Tara","postalCode":"44770","city":"La Plaine-sur-Mer"},
{"name":"La Table d'Uzès","stars":1,"street":"18 rue du Docteur Blanchard","postalCode":"30700","city":"Uzès"},
{"name":"L'Amphitryon","stars":1,"street":"127 r. du Col. -Müller","postalCode":"56100","city":"Lorient"},
{"name":"Auberge à la Bonne Idée","stars":1,"street":"3 rue des Meuniers","postalCode":"60350","city":"SAINT-JEAN-AUX-BOIS"},
{"name":"Le Carré d'Alethius","stars":1,"street":"4 r. Paul-Bertois","postalCode":"07800","city":"Charmes-sur-Rhône"},
{"name":"La Grande Maison de Bernard Magrez","stars":2,"street":"10 Rue Labottière","postalCode":"33000","city":"Bordeaux"},
{"name":"Le Manoir du Lys","stars":1,"street":"D235","postalCode":"61140","city":"Bagnoles-de-l'Orne"},
{"name":"La Licorne Royale","stars":1,"street":"27 Place Isaac Benserade","postalCode":"27480","city":"Lyons-la-Forêt"},
{"name":"Le Bénaton","stars":1,"street":"25 Rue du Faubourg-Bretonnière","postalCode":"21200","city":"BEAUNE"},
{"name":"La Chaumière","stars":1,"street":"346 av. du Mar. -Juin","postalCode":"39100","city":"Dole"},
{"name":"Loiseau des Vignes","stars":1,"street":"31 Rue Jean Francois Maufoux","postalCode":"21200","city":"Beaune"},
{"name":"Pierre Gagnaire","stars":3,"street":"6 Rue Balzac","postalCode":"75008","city":"Paris 08"},
{"name":"Chez Michèle","stars":1,"street":"57 rue Principale","postalCode":"57810","city":"Languimberg"},
{"name":"Château de la Treyne","stars":1,"street":"","postalCode":"46200","city":"Lacave"},
{"name":"La Table de la Bergerie","stars":1,"street":"La Bergerie","postalCode":"49380","city":"Champ-sur-Layon"},
{"name":"Le Cap","stars":1,"street":"71 Boulevard du Général-de-Gaulle","postalCode":"06230","city":"SAINT-JEAN-CAP-FERRAT"},
{"name":"Le Petit Nice","stars":3,"street":"Anse de Maldormé - Corniche J. F. Kennedy","postalCode":"13007","city":"Marseille 07"},
{"name":"Le Moulin de l'Abbaye","stars":1,"street":"1 avenue Pierre de Bourdeilles","postalCode":"24310","city":"BRANTOME"},
{"name":"L'Émulsion","stars":1,"street":"57 rte de Lyon","postalCode":"38080","city":"Saint-Alban-de-Roche"},
{"name":"Le Kléber","stars":1,"street":"6 r. A. -Dumont","postalCode":"26400","city":"Crest"},
{"name":"Likoké","stars":1,"street":"7 rte de Païolive","postalCode":"07140","city":"Les Vans"},
{"name":"Kei","stars":2,"street":"5 rue du Coq-Héron","postalCode":"75001","city":"Paris 01"},
{"name":"Le Pressoir d'Argent - Gordon Ramsay","stars":2,"street":"2,5 Place de la Comédie","postalCode":"33000","city":"Bordeaux"},
{"name":"Xavier Mathieu","stars":1,"street":"Route de Murs","postalCode":"84220","city":"Joucas"},
{"name":"La Fourchette des Ducs","stars":2,"street":"6 r. de la Gare","postalCode":"67210","city":"Obernai"},
{"name":"64° Le Restaurant","stars":2,"street":"9-13 Rue du Général de Gaulle","postalCode":"68240","city":"Kaysersberg"},
{"name":"L'Odas","stars":1,"street":"Passage Maurice Lenfant","postalCode":"76000","city":"Rouen"},
{"name":"Le Bistrot de Lagarde","stars":1,"street":"rte d'Apt","postalCode":"84400","city":"Lagarde-d'Apt"},
{"name":"Origine","stars":1,"street":"26 Rampe Cauchoise","postalCode":"76000","city":"Rouen"},
{"name":"Ithurria","stars":1,"street":"pl. du Fronton","postalCode":"64250","city":"Ainhoa"},
{"name":"Jean-Claude Leclerc","stars":1,"street":"12 rue St-Adjutor","postalCode":"63000","city":"Clermont-Ferrand"},
{"name":"Le Cerf","stars":1,"street":"30 r. du Gén.-de-Gaulle","postalCode":"67520","city":"Marlenheim"},
{"name":"Restaurant du Palais Royal","stars":1,"street":"110 Galerie de Valois - Jardin du Palais Royal","postalCode":"75001","city":"Paris 01"},
{"name":"La Réserve Rimbaud","stars":1,"street":"820 Avenue de Saint-Maur","postalCode":"34000","city":"Montpellier"},
{"name":"Le M","stars":1,"street":"22 r. du Cdt-Drogou","postalCode":"29200","city":"Brest"},
{"name":"Auberge du Vert Mont","stars":1,"street":"1318 r. du Mont-Noir","postalCode":"59299","city":"Boeschepe"},
{"name":"La Tour","stars":1,"street":"31 Nouvelle-Place","postalCode":"18300","city":"Sancerre"},
{"name":"Auguste","stars":1,"street":"54 r. Bourgogne","postalCode":"75007","city":"Paris 07"},
{"name":"Château de Courban","stars":1,"street":"7 rue du Lavoir","postalCode":"21520","city":"Courban"},
{"name":"Dyades au Domaine des Étangs","stars":1,"street":"Les Etangs","postalCode":"16310","city":"MASSIGNAC"},
{"name":"L'Essentiel","stars":1,"street":"29 Rue Mirabeau","postalCode":"14800","city":"DEAUVILLE"},
{"name":"L'Auberge Basque","stars":1,"street":"quartier Helbarron","postalCode":"64310","city":"Saint-Pée-sur-Nivelle"},
{"name":"Le Cerisier","stars":1,"street":"3 rue de la Gare","postalCode":"62840","city":"LAVENTIE"},
{"name":"En Marge","stars":1,"street":"1204 route de la Croix-Falgarde","postalCode":"31320","city":"AUREVILLE"},
{"name":"Auberge au Boeuf","stars":1,"street":"Rue de l'Eglise","postalCode":"67770","city":"Sessenheim"},
{"name":"Le Pergolèse","stars":1,"street":"40 Rue Pergolèse","postalCode":"75116","city":"Paris"},
{"name":"Auberge de la Mine","stars":1,"street":"le Gué-Plat","postalCode":"61450","city":"La Ferrière-aux-Étangs"},
{"name":"Aux Anges","stars":1,"street":"6 Place Georges Clemenceau","postalCode":"42300","city":"Roanne"},
{"name":"L'Olivier","stars":1,"street":"25 Route des Carles","postalCode":"83990","city":"Saint-Tropez"},
{"name":"Château de Mercuès","stars":1,"street":"Route du Château","postalCode":"46090","city":"Mercuès"},
{"name":"Alan Geaam","stars":1,"street":"19 Rue Lauriston","postalCode":"75016","city":"Paris"},
{"name":"L'Arnsbourg","stars":1,"street":"Untermuhlthal","postalCode":"57230","city":"Baerenthal"},
{"name":"La Marelle","stars":1,"street":"1593 av. de Lyon","postalCode":"01960","city":"Péronnas"},
{"name":"Quinsou","stars":1,"street":"33 r. de l'Abbé-Grégoire","postalCode":"75006","city":"Paris"},
{"name":"Brikéténia","stars":1,"street":"142 r. de l'Église","postalCode":"64210","city":"Guéthary"},
{"name":"Hervé Busset","stars":1,"street":"D901","postalCode":"12320","city":"Conques"},
{"name":"L'Épuisette","stars":1,"street":"158 Vallon-des-Auffes","postalCode":"13007","city":"Marseille"},
{"name":"Astrance","stars":3,"street":"4 r. Beethoven","postalCode":"75016","city":"Paris"},
{"name":"Ed.Em","stars":1,"street":"4 imp. Chenevottes","postalCode":"21190","city":"Chassagne-Montrachet"},
{"name":"Les Ducs de Lorraine","stars":1,"street":"5 av. Provence","postalCode":"88000","city":"Épinal"},
{"name":"Le Relais des Moines","stars":1,"street":"route de Ste-Roseline","postalCode":"83460","city":"Les Arcs"},
{"name":"La Grande Maison de Bernard Magrez","stars":2,"street":"10 Rue Labottière","postalCode":"33000","city":"Bordeaux"},
{"name":"Le Château de Sable","stars":1,"street":"38 r. de l'Europe","postalCode":"29840","city":"Porspoder"},
{"name":"Mère Brazier","stars":2,"street":"12 rue Royale","postalCode":"69001","city":"LYON"},
{"name":"L'Arcane","stars":1,"street":"39 Rue Lamarck","postalCode":"75018","city":"Paris"},
{"name":"Château Cordeillan-Bages","stars":1,"street":"route des chateaux","postalCode":"33250","city":"Pauillac"},
{"name":"La Bastide de Capelongue","stars":2,"street":"Chemin des Cabanes","postalCode":"84480","city":"Bonnieux"},
{"name":"Les Berceaux","stars":1,"street":"13 rue des Berceaux","postalCode":"51200","city":"Épernay"},
{"name":"L'Atelier Yssoirien","stars":1,"street":"39 Boulevard Triozon-Bayle","postalCode":"63500","city":"Issoire"},
{"name":"La Table du 11","stars":1,"street":"8 rue de la chancellerie","postalCode":"78000","city":"Versailles"},
{"name":"Raphaël Vionnet","stars":1,"street":"43 Avenue du Général Leclerc","postalCode":"74200","city":"Thonon-les-Bains"},
{"name":"Hostellerie de Plaisance","stars":2,"street":"5 place du Clocher","postalCode":"33330","city":"Saint-Emilion"},
{"name":"Les Fresques","stars":1,"street":"13 Avenue des Mateirons","postalCode":"74500","city":"Évian-les-Bains"},
{"name":"Le Saint-Estève","stars":1,"street":"2250 route cézanne D17","postalCode":"13100","city":"Le Tholonet"},
{"name":"La Table du Connétable","stars":1,"street":"4 Rue du Connétable","postalCode":"60500","city":"Chantilly"},
{"name":"Le Bec au Cauchois","stars":1,"street":"22 Rue André Fiquet","postalCode":"76540","city":"Valmont"},
{"name":"Auberge de l'Abbaye","stars":1,"street":"47 place des anciens Combattants","postalCode":"01500","city":"Ambronay"},
{"name":"AM par Alexandre Mazzia","stars":1,"street":"9 rue François Rocca","postalCode":"13008","city":"Marseille"},
{"name":"L'Oustau de Baumanière","stars":2,"street":"Village des Baux-de-Provence","postalCode":"13520","city":"Les Baux-de-Provence"},
{"name":"Château de Sully","stars":1,"street":"D6","postalCode":"14400","city":"Sully"},
{"name":"SaQuaNa","stars":2,"street":"22 pl. Hamelin","postalCode":"14600","city":"Honfleur"},
{"name":"Les Trois Soleils de Montal","stars":1,"street":"St-Jean-Lespinasse","postalCode":"46400","city":"Saint-Céré"},
{"name":"La Chassagnette","stars":1,"street":"route du Sambuc","postalCode":"13200","city":"Arles"},
{"name":"Maison Rostang","stars":2,"street":"20 rue Rennequin","postalCode":"75017","city":"Paris"},
{"name":"Le Belrose","stars":1,"street":"Boulevard des Crêtes","postalCode":"83580","city":"Gassin"},
{"name":"La Table des Merville","stars":1,"street":"3 place Richard","postalCode":"31320","city":"Castanet-Tolosan"},
{"name":"Maison Kieny","stars":1,"street":"7 Rue du Général de Gaulle","postalCode":"68400","city":"Riedisheim"},
{"name":"L'Orangerie","stars":1,"street":"31 Avenue George-V","postalCode":"75008","city":"Paris"},
{"name":"Au Crocodile","stars":1,"street":"10 rue de L'Outre","postalCode":"67000","city":"STRASBOURG"},
{"name":"Faventia","stars":1,"street":"3100 route de Bagnols-en-Forêt","postalCode":"83440","city":"Tourrettes"},
{"name":"Auberge St-Laurent","stars":1,"street":"1 rue Fontaine","postalCode":"68510","city":"Sierentz"},
{"name":"Le Saison","stars":1,"street":"1 imp. du Vieux-Bourg","postalCode":"35760","city":"Saint-Grégoire"},
{"name":"La Côte Saint-Jacques","stars":2,"street":"14 faubourg de Paris","postalCode":"89300","city":"Joigny"},
{"name":"Le George","stars":1,"street":"31 Avenue George V","postalCode":"75008","city":"Paris"},
{"name":"Qui plume la Lune","stars":1,"street":"50 r. Amelot","postalCode":"75011","city":"Paris 11"},
{"name":"Logis de la Cadène","stars":1,"street":"Place du Marche au Bois","postalCode":"33330","city":"Saint Emilion"},
{"name":"La Rastègue","stars":1,"street":"48 bd du Levant","postalCode":"83230","city":"Bormes-les-Mimosas"},
{"name":"La Nouvelle Auberge","stars":1,"street":"9 route Nationale","postalCode":"68230","city":"Wihr-au-Val"},
{"name":"Château d'Adoménil","stars":1,"street":"","postalCode":"54300","city":"Lunéville"},
{"name":"Alain Ducasse au Plaza Athénée","stars":3,"street":"25 avenue Montaigne","postalCode":"75008","city":"Paris"},
{"name":"Le Clair de la Plume","stars":1,"street":"2 Place du Mail","postalCode":"26230","city":"Grignan"},
{"name":"La Table d'Uzès","stars":1,"street":"18 rue du Docteur Blanchard","postalCode":"30700","city":"Uzès"},
{"name":"Alcyone","stars":1,"street":"1 Place Daviel","postalCode":"13002","city":"MARSEILLE"},
{"name":"Les Clefs d'Argent","stars":1,"street":"333 Avenue des Martyrs de la Résistance","postalCode":"40000","city":"Mont-de-Marsan"},
{"name":"Épicure","stars":3,"street":"112 r. Fg St-Honoré","postalCode":"75008","city":"Paris 08"},
{"name":"Entre Vigne et Garrigue","stars":1,"street":"600 route de Saint Bruno","postalCode":"30131","city":"Pujaut"},
{"name":"Takao Takano","stars":2,"street":"33 Rue Malesherbes","postalCode":"69006","city":"Lyon 06"},
{"name":"Alliance","stars":1,"street":"5 Rue de Poissy","postalCode":"75005","city":"Paris"},
{"name":"Stéphane Derbord","stars":1,"street":"10 Place du Président Wilson","postalCode":"21000","city":"Dijon"},
{"name":"L'Écrin","stars":1,"street":"10 place de la Concorde","postalCode":"75008","city":"Paris"},
{"name":"René et Maxime Meilleur","stars":3,"street":"Saint Marcel","postalCode":"73440","city":"Saint-Martin-de-Belleville"},
{"name":"Maison Christian Étienne","stars":1,"street":"10 Rue de Mons","postalCode":"84000","city":"Avignon"},
{"name":"Le Vivier","stars":1,"street":"800 cours F. Peyre (rte de Carpentras)","postalCode":"84800","city":"L'Isle-sur-la-Sorgue"},
{"name":"Serge Vieira","stars":2,"street":"Château du Couffour","postalCode":"15110","city":"Chaudes-Aigues"},
{"name":"Julien Binz","stars":1,"street":"7 Rue des Cigognes","postalCode":"68770","city":"Ammerschwihr"},
{"name":"Albert 1er","stars":2,"street":"38 rte du Bouchet","postalCode":"74400","city":"Chamonix-Mont-Blanc"},
{"name":"La Voile","stars":1,"street":"chemin de la Quessine","postalCode":"83350","city":"Ramatuelle"},
{"name":"Buerehiesel","stars":1,"street":"dans le parc de l'Orangerie","postalCode":"67000","city":"Strasbourg"},
{"name":"Auberge du Cellier","stars":1,"street":"1 Rue de Sainte-Eugénie","postalCode":"66720","city":"Montner"},
{"name":"Le Strasbourg","stars":1,"street":"24 r. du Col. -Teyssier","postalCode":"57230","city":"Bitche"},
{"name":"Quai des Saveurs","stars":1,"street":"69 rue de la Gare","postalCode":"57300","city":"Hagondange"},
{"name":"Apicius","stars":1,"street":"Marché Saint Pierre 1 étage","postalCode":"63000","city":"Clermont-Ferrand"},
{"name":"Prairial","stars":1,"street":"11 Rue Chavanne","postalCode":"69001","city":"Lyon"},
{"name":"Auberge de l'Ill","stars":3,"street":"2 rue de Collonges-au-Mont d'Or","postalCode":"68970","city":"Illhaeusern"},
{"name":"Une Île","stars":1,"street":"9 r. Max-Richard","postalCode":"49000","city":"Angers"},
{"name":"Auberge de la Brie","stars":1,"street":"14 av. Alphonse Boulingre","postalCode":"77860","city":"Couilly-Pont-aux-Dames"},
{"name":"Auberge à la Bonne Idée","stars":1,"street":"3 rue des Meuniers","postalCode":"60350","city":"SAINT-JEAN-AUX-BOIS"},
{"name":"Grand Hôtel du Lion d'Or","stars":1,"street":"69 r. Clemenceau","postalCode":"41200","city":"Romorantin-Lanthenay"},
{"name":"Les Terrasses de Lyon","stars":1,"street":"25, montée Saint BArthelémy","postalCode":"69005","city":"Lyon 05"},
{"name":"Les Cèdres","stars":2,"street":"25 Rue Henri MACHON","postalCode":"26600","city":"Granges-les-Beaumont"},
{"name":"La Balette","stars":1,"street":"rte de Port-Vendres","postalCode":"66190","city":"Collioure"},
{"name":"Flocons de Sel","stars":3,"street":"1775 rte du Leutaz","postalCode":"74120","city":"Megève"},
{"name":"Dominique Bucaille","stars":1,"street":"715 av. des Savels","postalCode":"04100","city":"Manosque"},
{"name":"Le Passe Temps","stars":1,"street":"52 Rue Tronchet","postalCode":"69006","city":"Lyon"},
{"name":"Les Terrasses d'Uriage","stars":2,"street":"pl. Déesse-Hygie","postalCode":"38410","city":"Uriage-les-Bains"},
{"name":"Villa Archange","stars":2,"street":"Rue de l'Ouest","postalCode":"06110","city":"Le Cannet"},
{"name":"Le Cinq","stars":3,"street":"31 av. George V","postalCode":"75008","city":"Paris 08"},
{"name":"Le Gourmet de Sèze","stars":1,"street":"125 Rue de Sèze","postalCode":"69006","city":"Lyon"},
{"name":"L'Arôme","stars":1,"street":"3 rue St-Philippe-du-Roule","postalCode":"75008","city":"Paris 08"},
{"name":"La Gourmandière - La Table d'Olivier","stars":1,"street":"D126","postalCode":"56000","city":"Vannes"},
{"name":"Auberge Frankenbourg","stars":1,"street":"13 r. Gén. de Gaulle","postalCode":"67730","city":"La Vancelle"},
{"name":"Christophe Bacquié","stars":3,"street":"Hotel du Castellet Route des Hauts du Camp","postalCode":"83330","city":"Le Castellet"},
{"name":"La Table de Franck Putelat","stars":2,"street":"80 chemin des Anglais","postalCode":"11000","city":"Carcassonne"},
{"name":"Sylvestre","stars":2,"street":"79 rue St-Dominique","postalCode":"75007","city":"Paris"},
{"name":"Cobéa","stars":1,"street":"11 r. Raymond Losserand","postalCode":"75014","city":"Paris 14"},
{"name":"Le Carré d'Alethius","stars":1,"street":"4 r. Paul-Bertois","postalCode":"07800","city":"Charmes-sur-Rhône"}]
